0 LEMUR 2 ARIANNA
1 62699U 25009CU  26161.16469632  .00007575  00000-0  57655-3 0  9996
2 62699  97.6888 242.6042 0003419 136.4973 223.6521 15.02380057 76500
0 LEMUR 2 ALISIA
1 62706U 25009DB  26161.54348258  .00006768  00000-0  51174-3 0  9990
2 62706  97.6968 243.7586 0001224 188.7769 171.3434 15.02675089 99169
0 LEMUR 2 ROUNDTRIPPER
1 62711U 25009DG  26161.50605047  .00007889  00000-0  57995-3 0  9996
2 62711  97.7249 244.1948 0004618 152.6216 207.5254 15.03678332 76625
0 LEMUR 2 MYNAMEISJEFF
1 62712U 25009DH  26161.17178051  .00008090  00000-0  59455-3 0  9998
2 62712  97.7295 244.2378 0002813 179.4497 180.6731 15.03687489 76576
0 LEMUR 2 LEIA-PHILIP
1 63246U 25052AN  26161.58739048  .00001914  00000-0  17003-3 0  9994
2 63246  97.6848  53.6491 0002058 235.7448 124.3579 14.97300286 67689
0 LEMUR 2 LIA-MARTIN
1 63248U 25052AQ  26161.59450977  .00004412  00000-0  38093-3 0  9996
2 63248  97.6915  54.1212 0002501 166.2017 193.9274 14.97751951 67690
0 LEMUR 2 DELOITTE-1
1 63259U 25052BB  26161.23592070  .00003508  00000-0  30550-3 0  9995
2 63259  97.6924  54.0968 0002724 111.2651 248.8863 14.97549341 67658
0 LEMUR 2 EMERSONROSE
1 63261U 25052BD  26161.61845895  .00003063  00000-0  25743-3 0  9990
2 63261  97.6904  55.0203 0002234  68.4440 291.7021 14.99035311 67750
0 LEMUR 2 MARACHE-FRAN
1 63262U 25052BE  26161.46480417  .00005138  00000-0  41735-3 0  9993
2 63262  97.6954  55.1700 0006077  45.0881 315.0835 15.00031062 67753
0 LEMUR 2 THEFALCONER
1 63264U 25052BG  26161.46181859  .00003475  00000-0  30428-3 0  9992
2 63264  97.6884  53.9471 0003449  54.6793 305.4752 14.97347706 67689
0 LEMUR 2 UNTITLED-SC
1 63351U 25061A   26161.47710741  .00003476  00000-0  19771-3 0  9997
2 63351  97.5629 136.8878 0017068 290.3097  69.6300 15.13424570 66571
0 LEMUR 2 ESPERANZA
1 63352U 25061B   26161.19020265  .00003008  00000-0  17116-3 0  9994
2 63352  97.5637 136.6951 0016592 290.8274  69.1180 15.13517589 66534
0 LEMUR 2 KREMPEL-BRO2
1 63353U 25061C   26160.88872206  .00003773  00000-0  21109-3 0  9996
2 63353  97.5684 136.9196 0017530 283.4459  76.4818 15.13949569 66500
0 LEMUR 2 THERMORAPTOR
1 63354U 25061D   26161.46598540  .00003570  00000-0  19955-3 0  9999
2 63354  97.5690 137.5679 0017165 280.2186  79.7110 15.14033444 66594
0 LEMUR 2 NEUROSPICY
1 63355U 25061E   26161.23991082  .00003215  00000-0  17963-3 0  9996
2 63355  97.5615 136.9747 0015028 285.3271  74.6300 15.14145542 66563
0 LEMUR 2 TILLINFINITY
1 63356U 25061F   26161.47603792  .00003756  00000-0  20573-3 0  9992
2 63356  97.5601 137.4951 0016218 270.9166  89.0207 15.14734058 66626
0 LEMUR 2 KREMPEL-BRO1
1 63357U 25061G   26161.18437184  .00003135  00000-0  17324-3 0  9992
2 63357  97.5602 137.1232 0016830 273.4183  86.5124 15.14537477 66574
0 LEMUR 2 LANGER2SPACE
1 63358U 25061H   26161.53988996  .00003671  00000-0  20408-3 0  9996
2 63358  97.5607 137.2931 0014918 282.2072  77.7489 15.14236533 66617
0 LEMUR 2 BALTO
1 63395U 25052BH  26161.64952975  .00005044  00000-0  40994-3 0  9995
2 63395  97.6890  55.3356 0006753  74.1816 286.0151 15.00014164 67785
0 LEMUR 2 KRISH
1 64561U 25135AK  26161.31961851  .00004513  00000-0  40604-3 0  9998
2 64561  97.7725 276.2442 0001384 107.6724 252.4649 14.96140201 52895
0 LEMUR 2 HUBBLE-4
1 64565U 25135AP  26161.56918127  .00001064  00000-0  10735-3 0  9997
2 64565  97.7692 275.5559 0001418 347.6340  12.4845 14.93178091 52887
0 LEMUR 2 SEJONG-2
1 64586U 25135BL  26161.61930580  .00003521  00000-0  31379-3 0  9990
2 64586  97.7686 276.6861 0004366   9.5663 350.5640 14.96649271 52962
0 LEMUR 2 HUBBLE-5
1 64840U 25135BT  26161.59438127  .00001749  00000-0  16894-3 0  9995
2 64840  97.7711 276.2037 0005593  16.4511 343.6889 14.94115577 52926
0 LEMUR 2 KARENDARRELL
1 64841U 25135BU  26161.58105390  .00006780  00000-0  54915-3 0  9994
2 64841  97.7668 277.8014 0009242 227.6823 132.3618 15.00014059 53023
0 LEMUR-2-LUCILLE-ROSE
1 65403U 25135BV  26161.28817560  .00006433  00000-0  52053-3 0  9991
2 65403  97.7767 277.5200 0010742 309.9778  50.0501 15.00067060 47606
0 LEMUR 2 AFFIE-WAUWIE
1 66295U 25248C   26161.25212135  .00012829  00000-0  48614-3 0  9994
2 66295  45.3855 152.5549 0008368  38.3394 321.8088 15.26939127 33535
0 LEMUR-2-DEANANDMAEVE
1 66678U 25276N   26161.46682964  .00006073  00000-0  28787-3 0  9997
2 66678  97.4214 235.0542 0006362  36.8396 323.3275 15.19650373 29393
0 LEMUR-2-STAS-GORBUK
1 66686U 25276W   26161.15049603  .00005503  00000-0  26379-3 0  9991
2 66686  97.4248 234.7986 0005807  37.9658 322.1985 15.19305724 29340
0 LEMUR-2-TEODOR
1 66768U 25276DG  26161.47092951  .00005385  00000-0  24609-3 0  9993
2 66768  97.4153 235.3417 0001946 122.1767 237.9658 15.20977088 29429
0 LEMUR-2-LAILA
1 66776U 25276DQ  26161.51159873  .00005002  00000-0  22736-3 0  9999
2 66776  97.4177 235.4983 0001781 144.5467 215.5887 15.21197236 29432
