OBJECT_NAME,OBJECT_ID,EPOCH,MEAN_MOTION,ECCENTRICITY,INCLINATION,RA_OF_ASC_NODE,ARG_OF_PERICENTER,MEAN_ANOMALY,EPHEMERIS_TYPE,CLASSIFICATION_TYPE,NORAD_CAT_ID,ELEMENT_SET_NO,REV_AT_EPOCH,BSTAR,MEAN_MOTION_DOT,MEAN_MOTION_DDOT
LEMUR-2-ARIANNA,2025-009CU,2026-06-10T03:57:09.762048,15.02380057,.0003419,97.6888,242.6042,136.4973,223.6521,0,U,62699,999,7650,.57655E-3,.7575E-4,0
LEMUR-2-ALISIA,2025-009DB,2026-06-10T13:02:36.894912,15.02675089,.00012244,97.6968,243.7586,188.7769,171.3434,0,U,62706,999,9916,.51173724E-3,.6768E-4,0
LEMUR-2-ROUNDTRIPPER,2025-009DG,2026-06-10T12:08:42.760608,15.03678332,.00046178,97.7249,244.1948,152.6216,207.5254,0,U,62711,999,7662,.57995431E-3,.7889E-4,0
LEMUR-2-MYNAMEISJEFF,2025-009DH,2026-06-10T04:07:21.836064,15.03687489,.0002813,97.7295,244.2378,179.4497,180.6731,0,U,62712,999,7657,.59455E-3,.809E-4,0
LEMUR-2-LEIA-PHILIP,2025-052AN,2026-06-10T14:05:50.537472,14.97300286,.00020584,97.6848,53.6491,235.7448,124.3579,0,U,63246,999,6768,.17003123E-3,.1914E-4,0
LEMUR-2-LIA-MARTIN,2025-052AQ,2026-06-10T14:16:05.644128,14.97751951,.00025015,97.6915,54.1212,166.2017,193.9274,0,U,63248,999,6769,.38092541E-3,.4412E-4,0
LEMUR-2-DELOITTE-1,2025-052BB,2026-06-10T05:39:43.548480,14.97549341,.00027238,97.6924,54.0968,111.2651,248.8863,0,U,63259,999,6765,.30550183E-3,.3508E-4,0
LEMUR-2-EMERSONROSE,2025-052BD,2026-06-10T14:50:34.853280,14.99035311,.00022342,97.6904,55.0203,68.4440,291.7021,0,U,63261,999,6775,.25742911E-3,.3063E-4,0
LEMUR-2-MARACHE-FRAN,2025-052BE,2026-06-10T11:09:19.080288,15.00031062,.00060773,97.6954,55.1700,45.0881,315.0835,0,U,63262,999,6775,.41735008E-3,.5138E-4,0
LEMUR-2-THEFALCONER,2025-052BG,2026-06-10T11:05:01.126176,14.97347706,.00034487,97.6884,53.9471,54.6793,305.4752,0,U,63264,999,6768,.30427982E-3,.3475E-4,0
LEMUR-2-UNTITLED-SC,2025-061A,2026-06-10T11:27:02.080224,15.13424570,.00170677,97.5629,136.8878,290.3097,69.6300,0,U,63351,999,6657,.1977118E-3,.3476E-4,0
LEMUR-2-ESPERANZA,2025-061B,2026-06-10T04:33:53.508960,15.13517589,.0016592,97.5637,136.6951,290.8274,69.1180,0,U,63352,999,6653,.17116E-3,.3008E-4,0
LEMUR-2-KREMPEL-BRO2,2025-061C,2026-06-09T21:19:45.585984,15.13949569,.00175301,97.5684,136.9196,283.4459,76.4818,0,U,63353,999,6650,.21109343E-3,.3773E-4,0
LEMUR-2-THERMORAPTOR,2025-061D,2026-06-10T11:11:01.138560,15.14033444,.00171654,97.5690,137.5679,280.2186,79.7110,0,U,63354,999,6659,.19955082E-3,.357E-4,0
LEMUR-2-NEUROSPICY,2025-061E,2026-06-10T05:45:28.294848,15.14145542,.0015028,97.5615,136.9747,285.3271,74.6300,0,U,63355,999,6656,.17963E-3,.3215E-4,0
LEMUR-2-TILLINFINITY,2025-061F,2026-06-10T11:25:29.676288,15.14734058,.00162176,97.5601,137.4951,270.9166,89.0207,0,U,63356,999,6662,.20573162E-3,.3756E-4,0
LEMUR-2-KREMPEL-BRO1,2025-061G,2026-06-10T04:25:29.726976,15.14537477,.00168304,97.5602,137.1232,273.4183,86.5124,0,U,63357,999,6657,.17323858E-3,.3135E-4,0
LEMUR-2-LANGER2SPACE,2025-061H,2026-06-10T12:57:26.492544,15.14236533,.00149177,97.5607,137.2931,282.2072,77.7489,0,U,63358,999,6661,.20407638E-3,.3671E-4,0
LEMUR-2-BALTO,2025-052BH,2026-06-10T15:35:19.370400,15.00014164,.00067526,97.6890,55.3356,74.1816,286.0151,0,U,63395,999,6778,.40994007E-3,.5044E-4,0
LEMUR-2-KRISH,2025-135AK,2026-06-10T07:40:15.039264,14.96140201,.00013841,97.7725,276.2442,107.6724,252.4649,0,U,64561,999,5289,.4060416E-3,.4513E-4,0
LEMUR-2-HUBBLE-4,2025-135AP,2026-06-10T13:39:37.261728,14.93178091,.00014176,97.7692,275.5559,347.6340,12.4845,0,U,64565,999,5288,.10735429E-3,.1064E-4,0
LEMUR-2-SEJONG-2,2025-135BL,2026-06-10T14:51:48.021120,14.96649271,.00043657,97.7686,276.6861,9.5663,350.5640,0,U,64586,999,5296,.31379078E-3,.3521E-4,0
LEMUR-2-HUBBLE-5,2025-135BT,2026-06-10T14:15:54.541728,14.94115577,.00055931,97.7711,276.2037,16.4511,343.6889,0,U,64840,999,5292,.16894353E-3,.1749E-4,0
LEMUR-2-KARENDARRELL,2025-135BU,2026-06-10T13:56:43.056960,15.00014059,.00092417,97.7668,277.8014,227.6823,132.3618,0,U,64841,999,5302,.54915351E-3,.678E-4,0
LEMUR-2-LUCILLE-ROSE,2025-135BV,2026-06-10T06:54:58.371840,15.00067060,.00107415,97.7767,277.5200,309.9778,50.0501,0,U,65403,999,4760,.52052729E-3,.6433E-4,0
LEMUR-2-AFFIE-WAUWIE,2025-248C,2026-06-10T06:03:03.284640,15.26939127,.0008368,45.3855,152.5549,38.3394,321.8088,0,U,66295,999,3353,.48614E-3,.12829E-3,0
LEMUR-2-DEANANDMAEVE,2025-276N,2026-06-10T11:12:14.080896,15.19650373,.00063624,97.4214,235.0542,36.8396,323.3275,0,U,66678,999,2939,.28787048E-3,.6073E-4,0
LEMUR-2-STAS-GORBUK,2025-276W,2026-06-10T03:36:42.856992,15.19305724,.0005807,97.4248,234.7986,37.9658,322.1985,0,U,66686,999,2934,.26379E-3,.5503E-4,0
LEMUR-2-TEODOR,2025-276DG,2026-06-10T11:18:08.309664,15.20977088,.00019458,97.4153,235.3417,122.1767,237.9658,0,U,66768,999,2942,.24609197E-3,.5385E-4,0
LEMUR-2-LAILA,2025-276DQ,2026-06-10T12:16:42.130272,15.21197236,.00017815,97.4177,235.4983,144.5467,215.5887,0,U,66776,999,2943,.22736195E-3,.5002E-4,0
